[{"OBJECT_NAME":"HERMES-3","OBJECT_ID":"2025-052BR","EPOCH":"2026-03-09T22:30:01.073952","MEAN_MOTION":15.30039786,"ECCENTRICITY":0.00079928,"INCLINATION":97.3987,"RA_OF_ASC_NODE":324.6131,"ARG_OF_PERICENTER":112.9583,"MEAN_ANOMALY":247.2502,"EPHEMERIS_TYPE":0,"CLASSIFICATION_TYPE":"U","NORAD_CAT_ID":63835,"ELEMENT_SET_NO":999,"REV_AT_EPOCH":5486,"BSTAR":0.0006995793,"MEAN_MOTION_DOT":0.00020316,"MEAN_MOTION_DDOT":0},{"OBJECT_NAME":"STARLINK-34607","OBJECT_ID":"2025-144U","EPOCH":"2026-03-09T12:33:13.745664","MEAN_MOTION":15.30171229,"ECCENTRICITY":0.00014418,"INCLINATION":53.1586,"RA_OF_ASC_NODE":182.0056,"ARG_OF_PERICENTER":112.0264,"MEAN_ANOMALY":248.089,"EPHEMERIS_TYPE":0,"CLASSIFICATION_TYPE":"U","NORAD_CAT_ID":64742,"ELEMENT_SET_NO":999,"REV_AT_EPOCH":3966,"BSTAR":0.00026793801,"MEAN_MOTION_DOT":7.577e-5,"MEAN_MOTION_DDOT":0}]
